{
  "type": "FeatureCollection",
  "name": "Chamoli_Watersheds_Demo",
  "crs": { "type": "name", "properties": { "name": "urn:ogc:def:crs:OGC:1.3:CRS84" } },
  "features": [
    {
      "type": "Feature",
      "geometry": {
        "type": "Polygon",
        "coordinates": [
          [
            [79.62, 30.42],
            [79.78, 30.42],
            [79.82, 30.58],
            [79.65, 30.60],
            [79.62, 30.42]
          ]
        ]
      },
      "properties": {
        "id": "ws-rishiganga-01",
        "name": "Rishiganga Upper Watershed",
        "basin": "Alaknanda",
        "state": "Uttarakhand",
        "area_km2": 142.5,
        "mean_elevation_m": 3450,
        "mean_slope_deg": 32.4,
        "risk_level": "EXTREME",
        "data_mode": "DEMO"
      }
    },
    {
      "type": "Feature",
      "geometry": {
        "type": "Polygon",
        "coordinates": [
          [
            [79.55, 30.45],
            [79.72, 30.45],
            [79.75, 30.65],
            [79.52, 30.62],
            [79.55, 30.45]
          ]
        ]
      },
      "properties": {
        "id": "ws-dhauliganga-02",
        "name": "Dhauliganga Mainstem Sub-basin",
        "basin": "Alaknanda",
        "state": "Uttarakhand",
        "area_km2": 310.8,
        "mean_elevation_m": 2680,
        "mean_slope_deg": 26.1,
        "risk_level": "HIGH",
        "data_mode": "DEMO"
      }
    }
  ]
}
